{
  "type": "FeatureCollection",
  "features": [
    {
      "type": "Feature",
      "properties": {
        "norad_id": 66389,
        "name": "STARLINK-35694",
        "group": "last-30-days",
        "lat": 21.90987424122131,
        "lon": -49.9982150103531,
        "alt_km": 444.78858818052595,
        "timestamp": "2025-12-06T18:50:08.954141+00:00",
        "meta_object_name": "STARLINK-35694",
        "meta_object_id": "2025-257K",
        "meta_epoch": "2025-12-06T08:00:01.999872",
        "meta_mean_motion": 15.39452958,
        "meta_eccentricity": 0.00013859,
        "meta_inclination": 53.1597,
        "meta_ra_of_asc_node": 294.5794,
        "meta_arg_of_pericenter": 101.9361,
        "meta_mean_anomaly": 302.3951,
        "meta_ephemeris_type": 0,
        "meta_classification_type": "U",
        "meta_norad_cat_id": 66389,
        "meta_element_set_no": 999,
        "meta_rev_at_epoch": 546,
        "meta_bstar": 0.0034221876,
        "meta_mean_motion_dot": 0.00138232,
        "meta_mean_motion_ddot": 0,
        "tle_line1": "1 66389U 25257K   25340.33335648  .00138232  00000+0  34222-2 0  9995",
        "tle_line2": "2 66389  53.1597 294.5794 0001385 101.9361 302.3951 15.39452958  5461"
      },
      "geometry": {
        "type": "Point",
        "coordinates": [
          -49.9982150103531,
          21.90987424122131
        ]
      }
    },
    {
      "type": "Feature",
      "properties": {
        "norad_id": 66390,
        "name": "STARLINK-35665",
        "group": "last-30-days",
        "lat": 28.452222813085623,
        "lon": 88.24616133853253,
        "alt_km": 414.50160237713135,
        "timestamp": "2025-12-06T18:50:08.954158+00:00",
        "meta_object_name": "STARLINK-35665",
        "meta_object_id": "2025-257L",
        "meta_epoch": "2025-12-06T04:17:12.780096",
        "meta_mean_motion": 15.49341653,
        "meta_eccentricity": 0.00011183,
        "meta_inclination": 53.1591,
        "meta_ra_of_asc_node": 295.1167,
        "meta_arg_of_pericenter": 82.6759,
        "meta_mean_anomaly": 277.4377,
        "meta_ephemeris_type": 0,
        "meta_classification_type": "U",
        "meta_norad_cat_id": 66390,
        "meta_element_set_no": 999,
        "meta_rev_at_epoch": 546,
        "meta_bstar": 0.0018780257,
        "meta_mean_motion_dot": 0.00105543,
        "meta_mean_motion_ddot": 0,
        "tle_line1": "1 66390U 25257L   25340.17862014  .00105543  00000+0  18780-2 0  9991",
        "tle_line2": "2 66390  53.1591 295.1167 0001118  82.6759 277.4377 15.49341653  5462"
      },
      "geometry": {
        "type": "Point",
        "coordinates": [
          88.24616133853253,
          28.452222813085623
        ]
      }
    },
    {
      "type": "Feature",
      "properties": {
        "norad_id": 66391,
        "name": "STARLINK-35656",
        "group": "last-30-days",
        "lat": 27.07118662772296,
        "lon": -45.04760538181713,
        "alt_km": 438.5465323261051,
        "timestamp": "2025-12-06T18:50:08.954169+00:00",
        "meta_object_name": "STARLINK-35656",
        "meta_object_id": "2025-257M",
        "meta_epoch": "2025-12-05T03:46:18.556608",
        "meta_mean_motion": 15.40317588,
        "meta_eccentricity": 9.833e-05,
        "meta_inclination": 53.1603,
        "meta_ra_of_asc_node": 300.1096,
        "meta_arg_of_pericenter": 171.4639,
        "meta_mean_anomaly": 188.6383,
        "meta_ephemeris_type": 0,
        "meta_classification_type": "U",
        "meta_norad_cat_id": 66391,
        "meta_element_set_no": 999,
        "meta_rev_at_epoch": 530,
        "meta_bstar": 0.0098522303,
        "meta_mean_motion_dot": 0.00426205,
        "meta_mean_motion_ddot": 0,
        "tle_line1": "1 66391U 25257M   25339.15715922  .00426205  00000+0  98522-2 0  9996",
        "tle_line2": "2 66391  53.1603 300.1096 0000983 171.4639 188.6383 15.40317588  5302"
      },
      "geometry": {
        "type": "Point",
        "coordinates": [
          -45.04760538181713,
          27.07118662772296
        ]
      }
    },
    {
      "type": "Feature",
      "properties": {
        "norad_id": 66392,
        "name": "STARLINK-35671",
        "group": "last-30-days",
        "lat": 1.6040815766317718,
        "lon": -66.29350883871793,
        "alt_km": 448.13948136045383,
        "timestamp": "2025-12-06T18:50:08.954179+00:00",
        "meta_object_name": "STARLINK-35671",
        "meta_object_id": "2025-257N",
        "meta_epoch": "2025-12-06T08:00:01.999872",
        "meta_mean_motion": 15.39575554,
        "meta_eccentricity": 0.00020228,
        "meta_inclination": 53.1606,
        "meta_ra_of_asc_node": 294.6314,
        "meta_arg_of_pericenter": 106.4401,
        "meta_mean_anomaly": 271.94,
        "meta_ephemeris_type": 0,
        "meta_classification_type": "U",
        "meta_norad_cat_id": 66392,
        "meta_element_set_no": 999,
        "meta_rev_at_epoch": 546,
        "meta_bstar": 0.0027055968,
        "meta_mean_motion_dot": 0.00109226,
        "meta_mean_motion_ddot": 0,
        "tle_line1": "1 66392U 25257N   25340.33335648  .00109226  00000+0  27056-2 0  9997",
        "tle_line2": "2 66392  53.1606 294.6314 0002022 106.4401 271.9400 15.39575554  5467"
      },
      "geometry": {
        "type": "Point",
        "coordinates": [
          -66.29350883871793,
          1.6040815766317718
        ]
      }
    },
    {
      "type": "Feature",
      "properties": {
        "norad_id": 66393,
        "name": "STARLINK-35652",
        "group": "last-30-days",
        "lat": 38.89707512446866,
        "lon": -30.373575462818035,
        "alt_km": 441.43366121394865,
        "timestamp": "2025-12-06T18:50:08.954189+00:00",
        "meta_object_name": "STARLINK-35652",
        "meta_object_id": "2025-257P",
        "meta_epoch": "2025-12-06T08:00:01.999872",
        "meta_mean_motion": 15.39605007,
        "meta_eccentricity": 0.00016884,
        "meta_inclination": 53.1588,
        "meta_ra_of_asc_node": 294.5321,
        "meta_arg_of_pericenter": 94.7612,
        "meta_mean_anomaly": 333.3094,
        "meta_ephemeris_type": 0,
        "meta_classification_type": "U",
        "meta_norad_cat_id": 66393,
        "meta_element_set_no": 999,
        "meta_rev_at_epoch": 546,
        "meta_bstar": -0.00040318203,
        "meta_mean_motion_dot": -0.00016484,
        "meta_mean_motion_ddot": 0,
        "tle_line1": "1 66393U 25257P   25340.33335648 -.00016484  00000+0 -40318-3 0  9990",
        "tle_line2": "2 66393  53.1588 294.5321 0001688  94.7612 333.3094 15.39605007  5463"
      },
      "geometry": {
        "type": "Point",
        "coordinates": [
          -30.373575462818035,
          38.89707512446866
        ]
      }
    },
    {
      "type": "Feature",
      "properties": {
        "norad_id": 66394,
        "name": "STARLINK-35672",
        "group": "last-30-days",
        "lat": 40.13602745954916,
        "lon": -28.392283192941388,
        "alt_km": 440.3657615579914,
        "timestamp": "2025-12-06T18:50:08.954199+00:00",
        "meta_object_name": "STARLINK-35672",
        "meta_object_id": "2025-257Q",
        "meta_epoch": "2025-12-06T08:00:01.999872",
        "meta_mean_motion": 15.39635863,
        "meta_eccentricity": 0.00018279,
        "meta_inclination": 53.1595,
        "meta_ra_of_asc_node": 294.5279,
        "meta_arg_of_pericenter": 66.0664,
        "meta_mean_anomaly": 3.8041,
        "meta_ephemeris_type": 0,
        "meta_classification_type": "U",
        "meta_norad_cat_id": 66394,
        "meta_element_set_no": 999,
        "meta_rev_at_epoch": 546,
        "meta_bstar": 0.0032908426,
        "meta_mean_motion_dot": 0.00133633,
        "meta_mean_motion_ddot": 0,
        "tle_line1": "1 66394U 25257Q   25340.33335648  .00133633  00000+0  32908-2 0  9990",
        "tle_line2": "2 66394  53.1595 294.5279 0001827  66.0664   3.8041 15.39635863  5462"
      },
      "geometry": {
        "type": "Point",
        "coordinates": [
          -28.392283192941388,
          40.13602745954916
        ]
      }
    },
    {
      "type": "Feature",
      "properties": {
        "norad_id": 66395,
        "name": "STARLINK-35681",
        "group": "last-30-days",
        "lat": 51.373846020836936,
        "lon": 2.122390865388818,
        "alt_km": 439.88722945133577,
        "timestamp": "2025-12-06T18:50:08.954211+00:00",
        "meta_object_name": "STARLINK-35681",
        "meta_object_id": "2025-257R",
        "meta_epoch": "2025-12-06T08:00:01.999872",
        "meta_mean_motion": 15.4147087,
        "meta_eccentricity": 0.00011861,
        "meta_inclination": 53.159,
        "meta_ra_of_asc_node": 294.4836,
        "meta_arg_of_pericenter": 92.5245,
        "meta_mean_anomaly": 359.8998,
        "meta_ephemeris_type": 0,
        "meta_classification_type": "U",
        "meta_norad_cat_id": 66395,
        "meta_element_set_no": 999,
        "meta_rev_at_epoch": 530,
        "meta_bstar": -0.052938078,
        "meta_mean_motion_dot": -0.02005353,
        "meta_mean_motion_ddot": 0,
        "tle_line1": "1 66395U 25257R   25340.33335648 -.02005353  00000+0 -52938-1 0  9996",
        "tle_line2": "2 66395  53.1590 294.4836 0001186  92.5245 359.8998 15.41470870  5309"
      },
      "geometry": {
        "type": "Point",
        "coordinates": [
          2.122390865388818,
          51.373846020836936
        ]
      }
    }
  ]
}